STARLINK-30155          
1 57475U 23107U   26068.17935041  .00000391  00000+0  24290-4 0  9996
2 57475  43.0046 338.5844 0002593 269.8096  90.2458 15.26734779145077
FLOCK 4G-26             
1 62633U 25009AA  26068.80489479  .00011283  00000+0  42469-3 0  9999
2 62633  97.4054 151.3913 0001988 299.1273  60.9767 15.27281631 63733
